NORAD_CAT_ID,OBJECT_NAME,OBJECT_TYPE,EPOCH,MEAN_MOTION,ECCENTRICITY,INCLINATION,RA_OF_ASC_NODE,ARG_OF_PERICENTER,MEAN_ANOMALY,BSTAR,MEAN_MOTION_DOT,MEAN_MOTION_DDOT,TLE_LINE0,TLE_LINE1,TLE_LINE2,SEMIMAJOR_AXIS,PERIOD,APOGEE,PERIGEE,DECAYED
49447.0,STARLINK-3115,PAYLOAD,2022-10-20 12:21:24,15.08840245,0.0002393,53.217,8.5308,32.5283,327.5856,0.00017646,2.521e-05,0.0,0 STARLINK-3115,1 49447U 21104AR  22293.51486175  .00002521  00000-0  17646-3 0  9998,2 49447  53.2170   8.5308 0002393  32.5283 327.5856 15.08840245 53227,6917.88,95.438,541.4,538.089,0.0
49447.0,STARLINK-3115,PAYLOAD,2022-10-21 10:36:48,15.08836023,0.0002268,53.217,4.3656,32.593,327.5202,-3.171e-05,-7.93e-06,0.0,0 STARLINK-3115,1 49447U 21104AR  22294.44222943 -.00000793  00000-0 -31710-4 0  9992,2 49447  53.2170   4.3656 0002268  32.5930 327.5202 15.08836023 53366,6917.893,95.438,541.327,538.189,0.0
49447.0,STARLINK-3115,PAYLOAD,2022-10-21 23:19:53,15.08847421,0.0002432,53.2172,1.9886,31.9987,328.1153,1.3741e-05,-7e-07,0.0,0 STARLINK-3115,1 49447U 21104AR  22294.97214149 -.00000070  00000-0  13741-4 0  9990,2 49447  53.2172   1.9886 0002432  31.9987 328.1153 15.08847421 53449,6917.858,95.437,541.405,538.04,0.0
49447.0,STARLINK-3115,PAYLOAD,2022-10-22 12:02:58,15.08843263,0.0002446,53.2173,359.6097,32.2518,327.8623,-1.9014e-05,-5.91e-06,0.0,0 STARLINK-3115,1 49447U 21104AR  22295.50206334 -.00000591  00000-0 -19014-4 0  9995,2 49447  53.2173 359.6097 0002446  32.2518 327.8623 15.08843263 52454,6917.87,95.437,541.428,538.043,0.0
49447.0,STARLINK-3115,PAYLOAD,2022-10-23 10:18:21,15.08849818,0.0002354,53.2166,355.4451,32.4281,327.6856,4.5349e-05,4.34e-06,0.0,0 STARLINK-3115,1 49447U 21104AR  22296.42941134  .00000434  00000-0  45349-4 0  9995,2 49447  53.2166 355.4451 0002354  32.4281 327.6856 15.08849818 52594,6917.85,95.437,541.344,538.087,0.0
49447.0,STARLINK-3115,PAYLOAD,2022-10-23 13:29:07,15.08848271,0.0002393,53.2166,354.8506,33.9311,326.1833,0.00013938,1.931e-05,0.0,0 STARLINK-3115,1 49447U 21104AR  22296.56188893  .00001931  00000-0  13938-3 0  9996,2 49447  53.2166 354.8506 0002393  33.9311 326.1833 15.08848271 52615,6917.855,95.437,541.376,538.065,0.0
49447.0,STARLINK-3115,PAYLOAD,2022-10-24 02:12:11,15.08856645,0.0002343999999999,53.2162,352.4717,32.8542,327.2596,0.0001013,1.325e-05,0.0,0 STARLINK-3115,1 49447U 21104AR  22297.09180011  .00001325  00000-0  10130-3 0  9997,2 49447  53.2162 352.4717 0002344  32.8542 327.2596 15.08856645 53768,6917.83,95.437,541.316,538.073,0.0
49447.0,STARLINK-3115,PAYLOAD,2022-10-24 10:09:09,15.08831128,0.000237,53.2174,350.9856,31.5508,328.5626,-8.0101e-05,-1.563e-05,0.0,0 STARLINK-3115,1 49447U 21104AR  22297.42302151 -.00001563  00000-0 -80101-4 0  9997,2 49447  53.2174 350.9856 0002370  31.5508 328.5626 15.08831128 53818,6917.908,95.438,541.4119999999998,538.133,0.0
49447.0,STARLINK-3115,PAYLOAD,2022-10-24 21:16:52,15.08815718,0.0002414,53.2163,348.9038,31.37,328.7436,-0.00024795,-4.23e-05,0.0,0 STARLINK-3115,1 49447U 21104AR  22297.88672045 -.00004230  00000-0 -24795-3 0  9999,2 49447  53.2163 348.9038 0002414  31.3700 328.7436 15.08815718 53881,6917.955,95.439,541.49,538.15,0.0
49447.0,STARLINK-3115,PAYLOAD,2022-10-25 09:59:57,15.08820511,0.0002443,53.2163,346.5248,32.2604,327.8537,-0.00016027,-2.837e-05,0.0,0 STARLINK-3115,1 49447U 21104AR  22298.41664068 -.00002837  00000-0 -16027-3 0  9995,2 49447  53.2163 346.5248 0002443  32.2604 327.8537 15.08820511 52892,6917.94,95.439,541.495,538.115,0.0
49447.0,STARLINK-3115,PAYLOAD,2022-10-26 13:01:31,15.08824911,0.0002588,53.2165,341.4698,32.573,327.5421,7.0113e-05,8.27e-06,0.0,0 STARLINK-3115,1 49447U 21104AR  22299.54272155  .00000827  00000-0  70113-4 0  9994,2 49447  53.2165 341.4698 0002588  32.5730 327.5421 15.08824911 54136,6917.927,95.439,541.582,538.001,0.0
49447.0,STARLINK-3115,PAYLOAD,2022-10-26 19:23:03,15.0882182,0.0002595,53.2166,340.2807,32.8325,327.2827,0.00020099,2.9100000000000013e-05,0.0,0 STARLINK-3115,1 49447U 21104AR  22299.80768278  .00002910  00000-0  20099-3 0  9991,2 49447  53.2166 340.2807 0002595  32.8325 327.2827 15.08821820 53106,6917.936,95.439,541.596,538.006,0.0
49447.0,STARLINK-3115,PAYLOAD,2022-10-27 04:55:22,15.08831383,0.0002611,53.2164,338.4964,33.873000000000005,326.2429,0.00025497,3.771e-05,0.0,0 STARLINK-3115,1 49447U 21104AR  22300.20511972  .00003771  00000-0  25497-3 0  9998,2 49447  53.2164 338.4964 0002611  33.8730 326.2429 15.08831383 54234,6917.906999999997,95.438,541.578,537.965,0.0
49447.0,STARLINK-3115,PAYLOAD,2022-10-27 09:41:31,15.08833328,0.0002615,53.2164,337.6043,34.2845,325.8316,0.00025792,3.818e-05,0.0,0 STARLINK-3115,1 49447U 21104AR  22300.40383990  .00003818  00000-0  25792-3 0  9997,2 49447  53.2164 337.6043 0002615  34.2845 325.8316 15.08833328 53194,6917.901,95.438,541.575,537.957,0.0
49447.0,STARLINK-3115,PAYLOAD,2022-10-27 19:13:49,15.08848403,0.0002658999999999,53.2164,335.82,34.7967,325.3199,0.00027261,4.054e-05,0.0,0 STARLINK-3115,1 49447U 21104AR  22300.80126965  .00004054  00000-0  27261-3 0  9994,2 49447  53.2164 335.8200 0002659  34.7967 325.3199 15.08848403 54327,6917.855,95.437,541.559,537.88,0.0
49447.0,STARLINK-3115,PAYLOAD,2022-10-28 09:32:17,15.08850182,0.0002686,53.2165,333.1435,35.0747,325.0422,0.00017367,2.477e-05,0.0,0 STARLINK-3115,1 49447U 21104AR  22301.39743003  .00002477  00000-0  17367-3 0  9990,2 49447  53.2165 333.1435 0002686  35.0747 325.0422 15.08850182 54412,6917.849,95.437,541.572,537.856,0.0
49447.0,STARLINK-3115,PAYLOAD,2022-10-29 09:23:04,15.08851111,0.0002856,53.2159,328.6857,32.3005,327.8162,-5.4735e-06,-3.76e-06,0.0,0 STARLINK-3115,1 49447U 21104AR  22302.39102837 -.00000376  00000-0 -54735-5 0  9995,2 49447  53.2159 328.6857 0002856  32.3005 327.8162 15.08851111 53499,6917.846,95.437,541.687,537.736,0.0
49447.0,STARLINK-3115,PAYLOAD,2022-10-29 18:55:23,15.08851758,0.0002661999999999,53.2159,326.8991,34.41,325.7065,-6.5745e-05,-1.335e-05,0.0,0 STARLINK-3115,1 49447U 21104AR  22302.78846581 -.00001335  00000-0 -65745-4 0  9997,2 49447  53.2159 326.8991 0002662  34.4100 325.7065 15.08851758 53555,6917.844,95.437,541.5509999999998,537.868,0.0
49447.0,STARLINK-3115,PAYLOAD,2022-10-29 20:30:46,15.08850337,0.0002643,53.2154,326.5992,33.0416,327.0741,-2.479e-05,-6.83e-06,0.0,0 STARLINK-3115,1 49447U 21104AR  22302.85470432 -.00000683  00000-0 -24790-4 0  9993,2 49447  53.2154 326.5992 0002643  33.0416 327.0741 15.08850337 54630,6917.849,95.437,541.5419999999998,537.885,0.0
49447.0,STARLINK-3115,PAYLOAD,2022-10-30 09:13:51,15.08846642,0.000251,53.216,324.2216,34.3126,325.8028,-3.9263e-05,-9.13e-06,0.0,0 STARLINK-3115,1 49447U 21104AR  22303.38462395 -.00000913  00000-0 -39263-4 0  9998,2 49447  53.2160 324.2216 0002510  34.3126 325.8028 15.08846642 53644,6917.86,95.437,541.461,537.989,0.0
49447.0,STARLINK-3115,PAYLOAD,2022-10-30 18:46:10,15.08836034,0.0002438,53.216,322.4379,35.1063,325.009,4.0425e-06,-2.24e-06,0.0,0 STARLINK-3115,1 49447U 21104AR  22303.78206877 -.00000224  00000-0  40425-5 0  9990,2 49447  53.2160 322.4379 0002438  35.1063 325.0090 15.08836034 53704,6917.893,95.438,541.444,538.071,0.0
49447.0,STARLINK-3115,PAYLOAD,2022-10-31 07:29:15,15.08846477,0.000248,53.2158,320.059,35.8504,324.2654,7.6865e-05,9.35e-06,0.0,0 STARLINK-3115,1 49447U 21104AR  22304.31197928  .00000935  00000-0  76865-4 0  9990,2 49447  53.2158 320.0590 0002480  35.8504 324.2654 15.08846477 53781,6917.861,95.437,541.441,538.01,0.0
49447.0,STARLINK-3115,PAYLOAD,2022-10-31 18:36:57,15.08838663,0.0002816,53.2157,317.9788,30.897,329.2188,3.4961999999999995e-05,2.68e-06,0.0,0 STARLINK-3115,1 49447U 21104AR  22304.77566581  .00000268  00000-0  34962-4 0  9996,2 49447  53.2157 317.9788 0002816  30.8970 329.2188 15.08838663 53852,6917.884,95.438,541.698,537.8009999999998,0.0
49447.0,STARLINK-3115,PAYLOAD,2022-11-01 07:20:02,15.08838989,0.0002549999999999,53.216,315.5975,30.4498,329.6642,1.3605e-05,-7.2e-07,0.0,0 STARLINK-3115,1 49447U 21104AR  22305.30558532 -.00000072  00000-0  13605-4 0  9998,2 49447  53.2160 315.5975 0002550  30.4498 329.6642 15.08838989 53933,6917.8830000000025,95.438,541.513,537.984,0.0
49447.0,STARLINK-3115,PAYLOAD,2022-11-01 20:03:07,15.08836966,0.0002534,53.2159,313.2187,30.246,329.8678,9.1988e-05,1.176e-05,0.0,0 STARLINK-3115,1 49447U 21104AR  22305.83550539  .00001176  00000-0  91988-4 0  9990,2 49447  53.2159 313.2187 0002534  30.2460 329.8678 15.08836966 54014,6917.89,95.438,541.508,538.002,0.0
49447.0,STARLINK-3115,PAYLOAD,2022-11-02 04:00:03,15.08841219,0.0002406,53.2157,311.7314,31.1619,328.9515,5.3015e-05,5.56e-06,0.0,0 STARLINK-3115,1 49447U 21104AR  22306.16670412  .00000556  00000-0  53015-4 0  9990,2 49447  53.2157 311.7314 0002406  31.1619 328.9515 15.08841219 55132,6917.877,95.437,541.406,538.077,0.0
49447.0,STARLINK-3115,PAYLOAD,2022-11-02 10:21:36,15.08840677,0.0003003999999999,53.2165,310.5438,27.6479,332.4672,-5.6959e-06,-3.79e-06,0.0,0 STARLINK-3115,1 49447U 21104AR  22306.43166770 -.00000379  00000-0 -56959-5 0  9993,2 49447  53.2165 310.5438 0003004  27.6479 332.4672 15.08840677 54101,6917.878000000002,95.438,541.821,537.665,0.0
49447.0,STARLINK-3115,PAYLOAD,2022-11-03 03:50:51,15.08832072,0.0002652,53.2166,307.2731,29.3205,330.7935,-8.8554e-06,-4.29e-06,0.0,0 STARLINK-3115,1 49447U 21104AR  22307.16031466 -.00000429  00000-0 -88554-5 0  9999,2 49447  53.2166 307.2731 0002652  29.3205 330.7935 15.08832072 55288,6917.905,95.438,541.604,537.935,0.0
49447.0,STARLINK-3115,PAYLOAD,2022-11-03 07:01:37,15.08831749,0.0002661,53.2162,306.6783,29.9938,330.1206,5.2886e-05,5.53e-06,0.0,0 STARLINK-3115,1 49447U 21104AR  22307.29279336  .00000553  00000-0  52886-4 0  9997,2 49447  53.2162 306.6783 0002661  29.9938 330.1206 15.08831749 54232,6917.906,95.438,541.611,537.93,0.0
